{
    "links": {
        "self": "http://www.neowsapp.com/rest/v1/neo/3364287?api_key=iIulBulltgU6a56xZRHN4H3l9WmuAYTsLGpBGhQ2"
    },
    "id": "3364287",
    "neo_reference_id": "3364287",
    "name": "(2006 YJ2)",
    "designation": "2006 YJ2",
    "nasa_jpl_url": "http://ssd.jpl.nasa.gov/sbdb.cgi?sstr=3364287",
    "absolute_magnitude_h": 22.1,
    "estimated_diameter": {
        "kilometers": {
            "estimated_diameter_min": 0.1010543415,
            "estimated_diameter_max": 0.2259643771
        },
        "meters": {
            "estimated_diameter_min": 101.054341542,
            "estimated_diameter_max": 225.9643771094
        },
        "miles": {
            "estimated_diameter_min": 0.0627922373,
            "estimated_diameter_max": 0.140407711
        },
        "feet": {
            "estimated_diameter_min": 331.5431259047,
            "estimated_diameter_max": 741.3529669956
        }
    },
    "is_potentially_hazardous_asteroid": false,
    "close_approach_data": [
        {
            "close_approach_date": "1999-10-23",
            "close_approach_date_full": "1999-Oct-23 13:16",
            "epoch_date_close_approach": 940684560000,
            "relative_velocity": {
                "kilometers_per_second": "13.0307717138",
                "kilometers_per_hour": "46910.7781696559",
                "miles_per_hour": "29148.5332465842"
            },
            "miss_distance": {
                "astronomical": "0.347204243",
                "lunar": "135.062450527",
                "kilometers": "51941015.20776241",
                "miles": "32274650.254684858"
            },
            "orbiting_body": "Earth"
        },
        {
            "close_approach_date": "2006-12-25",
            "close_approach_date_full": "2006-Dec-25 23:36",
            "epoch_date_close_approach": 1167089760000,
            "relative_velocity": {
                "kilometers_per_second": "8.8495926132",
                "kilometers_per_hour": "31858.5334074441",
                "miles_per_hour": "19795.6537164199"
            },
            "miss_distance": {
                "astronomical": "0.0987145543",
                "lunar": "38.3999616227",
                "kilometers": "14767487.061279341",
                "miles": "9176090.9588872658"
            },
            "orbiting_body": "Earth"
        },
        {
            "close_approach_date": "2014-01-18",
            "close_approach_date_full": "2014-Jan-18 03:37",
            "epoch_date_close_approach": 1390016220000,
            "relative_velocity": {
                "kilometers_per_second": "20.0260982274",
                "kilometers_per_hour": "72093.9536185234",
                "miles_per_hour": "44796.3791247986"
            },
            "miss_distance": {
                "astronomical": "0.4816901629",
                "lunar": "187.3774733681",
                "kilometers": "72059822.369793023",
                "miles": "44775897.3346407974"
            },
            "orbiting_body": "Earth"
        }
    ],
    "orbital_data": {
        "orbit_id": "15",
        "orbit_determination_date": "2017-04-06 09:07:17",
        "first_observation_date": "2006-12-21",
        "last_observation_date": "2007-01-21",
        "data_arc_in_days": 31,
        "observations_used": 74,
        "orbit_uncertainty": "7",
        "minimum_orbit_intersection": ".0934811",
        "jupiter_tisserand_invariant": "3.980",
        "epoch_osculation": "2459000.5",
        "eccentricity": ".4175503071344019",
        "semi_major_axis": "1.77090279535894",
        "inclination": "10.751168945023",
        "ascending_node_longitude": "107.811718664746",
        "orbital_period": "860.7767184935171",
        "perihelion_distance": "1.031461789251644",
        "perihelion_argument": "318.9589446892347",
        "aphelion_distance": "2.510343801466236",
        "perihelion_time": "2459235.486698382604",
        "mean_anomaly": "261.7222357433282",
        "mean_motion": ".4182269248987724",
        "equinox": "J2000",
        "orbit_class": {
            "orbit_class_type": "AMO",
            "orbit_class_description": "Near-Earth asteroid orbits similar to that of 1221 Amor",
            "orbit_class_range": "1.017 AU < q (perihelion) < 1.3 AU"
        }
    },
    "is_sentry_object": false
}